,Facility ID,Facility Name,Street Name,Suburb/Town,Pcode,Latitude,Longitude,Field/Surface Type,FullAddress,MelwaysVicRoadsRef
0,ALPINE10936,Jubilee Park & Swimming Pool,Lewis ,MYRTLEFORD,3737.0,-36.562971,146.724982,"25m Pool - Outdoor, Childrens Learning Pool, Toddlers Pool"," Lewis  Avenue, MYRTLEFORD 3737",660 B7
1,ARARAT12867,Ararat Solar Olympic Swimming Pool,Vincent,ARARAT,3377.0,-37.28075,142.928877,50m Pool - Outdoor," Vincent Street, ARARAT 3377",554 E7
2,ARARAT12881,Lake Bolac Swimming Pool,Montgomery,LAKE BOLAC,3351.0,-37.719091,142.840212,25m Pool - Outdoor," Montgomery Street, LAKE BOLAC 3351",555 T9
3,ARARAT12893,Willaura Swimming Pool,Delacome,WILLLAURA,3379.0,-37.546062,142.745701,," Delacome Way, WILLLAURA 3379",555 T3
4,BALLAR12478,Black Hill Swimming Pool,Chisholm,BLACK HILL,3350.0,-37.548972,143.87247,"25m Pool - Outdoor, Toddlers Pool"," Chisholm Street, BLACK HILL 3350",566 G5
5,BALLAR12480,Brown Hill Swimming Pool,Humffray,BALLARAT,3350.0,-37.553057,143.89671,"30m Pool - Outdoor, Toddlers Pool"," Humffray Street, BALLARAT 3350",567 L6
6,BALLAR12485,Buninyong Swimming Pool,Forest,BUNINYONG,3357.0,-37.650262,143.888,"25m Pool - Outdoor, Toddlers Pool"," Forest Street, BUNINYONG 3357",578 J4
7,BALLAR12500,Eureka Swimming Complex,Stawell,BALLARAT,3350.0,-37.564234,143.885261,"50m Pool - Outdoor, Childrens Learning Pool, Recreation / Play Water Space, Toddlers Pool"," Stawell Street, BALLARAT 3350",566 J9
8,BALLAR12531,UniSports Swimming Pool,Gear,MOUNT HELEN,3350.0,-37.625507,143.890819,25m Pool - Indoor," Gear Avenue, MOUNT HELEN 3350",572 K11
9,BALLAR12539,Wendouree Swimming Pool,Dowling,WENDOUREE,3355.0,-37.536656,143.841276,"50m Pool - Outdoor, Childrens Learning Pool"," Dowling Street, WENDOUREE 3355",566 A3
10,BAWBAW12102,Rawson Indoor Swimming pool,Knotts Siding,RAWSON,3825.0,-37.956055,146.39877,," Knotts Siding Road, RAWSON 3825",81 H9
11,BAWBAW12096,Neerim South Swimming pool,Swaffield,NEERIM SOUTH,3831.0,-38.017088,145.95515,"25m Pool - Outdoor, Toddlers Pool"," Swaffield Lane, NEERIM SOUTH 3831",707 R10
12,BAWBAW12115,Trafalgar Swimming Pool,Lady Hamilton ,TRAFALGAR,3824.0,-38.211763,146.154839,"30m Pool - Outdoor, Toddlers Pool"," Lady Hamilton  Lane, TRAFALGAR 3824",703 R10
13,GREATE8643,Bendigo East Swimming Pool,Lansell,BENDIGO EAST,3550.0,-36.754394,144.294439,"50m Pool - Outdoor, Toddlers Pool"," Lansell Street, BENDIGO EAST 3550",608 A5
14,GREATE8651,Brennan Park Swimming Pool,Edwards,KENNINGTON,,-36.776913,144.30186,"50m Pool - Outdoor, Diving Pool, Toddlers Pool"," Edwards Road, KENNINGTON ",608 B10
15,GREATE8664,Elmore Swimming Pool,Elmore-Raywood,ELMORE,3558.0,-36.49233,144.606551,," Elmore-Raywood Road, ELMORE 3558",627 M2
16,GREATE8674,Golden Square Swimming Pool,Maple,GOLDEN SQUARE,3555.0,-36.770862,144.259202,"50m Pool - Outdoor, Childrens Learning Pool, Toddlers Pool"," Maple Street, GOLDEN SQUARE 3555",607 O9
17,GREATE8676,Goornong Swimming Pool,Bagshot,GOORNONG,3557.0,-36.618764,144.503956,," Bagshot Street, GOORNONG 3557",45 A3
18,GREATE8681,Heathcote Swimming Pool,Barrack,HEATHCOTE,3523.0,-36.923271,144.711957,," Barrack Street, HEATHCOTE 3523",626 F6
19,GREATE8685,Kangaroo Flat Swimming Pool,Station,KANGAROO FLAT,3555.0,-36.79329,144.240029,"30m Pool - Outdoor, Childrens Learning Pool, Toddlers Pool"," Station Street, KANGAROO FLAT 3555",613 L2
20,GREATE8692,Long Gully Swimming Pool,Bennett,LONG GULLY,3550.0,-36.74621,144.259888,"25m Pool - Outdoor, Childrens Learning Pool, Toddlers Pool"," Bennett Street, LONG GULLY 3550",607 O3
21,GREATE8700,Marong Swimming Pool,Calder Alternative,MARONG,3515.0,-36.738618,144.132334,"25m Pool - Outdoor, Toddlers Pool"," Calder Alternative Highway, MARONG 3515",626 B11
22,GREATE8710,Raywood Swimming Pool,MacAuley,RAYWOOD,3570.0,-36.53367,144.203815,," MacAuley Street, RAYWOOD 3570",46 E2
23,GREATE8728,White Hills Swimming Pool,Hamelin,WHITE HILLS,3550.0,-36.724486,144.306237,," Hamelin Street, WHITE HILLS 3550",604 C10
24,BRIMBA8352,Flippers Swimming School,Trickey,SYDENHAM,3037.0,-37.697338,144.766512,,"50 Trickey Avenue, SYDENHAM 3037",3 C12
25,BULOKEBULOKE8734,Berriwillock Swimming Pool,Morris,BERRIWILLOCK,3531.0,-35.637231,142.995504,"Program Pool, Toddlers Pool"," Morris Street, BERRIWILLOCK 3531",18 H4
26,BULOKEBULOKE8739,Birchip Swimming Pool,Sherwood,BIRCHIP,3483.0,-35.981256,142.918717,"30m Pool - Outdoor, Toddlers Pool"," Sherwood Street, BIRCHIP 3483",588 J8
27,BULOKEBULOKE8756,Donald Swimming Pool,Woods,DONALD,3480.0,-36.375131,142.986551,"30m Pool - Outdoor, Toddlers Pool"," Woods Street, DONALD 3480",589 O10
28,BULOKEBULOKE8765,Sea Lake Swimming Pool,Horace,SEA LAKE,3533.0,-35.502697,142.850198,"30m Pool - Outdoor, Toddlers Pool"," Horace Street, SEA LAKE 3533",589 N2
29,BULOKEBULOKE8768,Watchem Swimming Pool,Camp,WATCHEM,3482.0,-36.148725,142.859556,"25m Pool - Outdoor, Toddlers Pool"," Camp Street, WATCHEM 3482",589 T5
30,BULOKEBULOKE8773,Wycheproof Swimming Pool,Charles,WYCHEPROOF,3527.0,-36.07291,143.228541,"30m Pool - Outdoor, Toddlers Pool"," Charles Street, WYCHEPROOF 3527",588 C6
31,CORANG12754,Camperdown Swimming Pool,Curdie,CAMPERDOWN,3260.0,-38.236659,143.149459,," Curdie Street, CAMPERDOWN 3260",517 O5
32,CORANG12760,Cobden Swimming Pool,Victoria,COBDEN,3266.0,-38.32556,143.078336,," Victoria Street, COBDEN 3266",518 D3
33,CORANG12766,Lismore Swimming Pool,Ferrers,LISMORE,3324.0,-37.955394,143.344467,," Ferrers Street, LISMORE 3324",516 D6
34,CORANG12777,Skipton Swimming Pool,Swimming Pool,SKIPTON,3361.0,-37.684072,143.369153,," Swimming Pool Road, SKIPTON 3361",518 D10
35,CORANG12786,Timboon Swimming Pool,Lambert,TIMBOON,3268.0,-38.486277,142.981087,," Lambert Street, TIMBOON 3268",516 J9
36,EASTGI10989,Bairnsdale Outdoor Swimming Pool,Turnbull ,BAIRNSDALE,3875.0,-37.823284,147.618016,50m Pool - Outdoor,"49 Turnbull  Street, BAIRNSDALE 3875",688 H7
37,EASTGI11026,Mallacoota Swimming Pool,Betka,MALLACOOTA,3892.0,-37.562064,149.753667,Recreation / Play Water Space,"63 Betka Road, MALLACOOTA 3892",683 R7
38,GANNAW8835,Cohuna Swimming Pool,Tennis,COHUNA,3568.0,-35.807018,144.221199,"25m Pool - Outdoor, Childrens Learning Pool, Toddlers Pool"," Tennis Road, COHUNA 3568",590 J10
39,GANNAW8842,Kerang Swimming Pool,Shadford,KERANG,3579.0,-35.733526,143.915405,"25m Pool - Outdoor, 50m Pool - Outdoor, Toddlers Pool"," Shadford Street, KERANG 3579",592 B4
40,GANNAW8849,Koondrook Swimming Pool,Thompson,KOONDROOK,3580.0,-35.642613,144.12885,"25m Pool - Outdoor, Childrens Learning Pool, Toddlers Pool"," Thompson Street, KOONDROOK 3580",591 R9
41,GANNAW8856,Leitchville War Memorial Swimming Pool,King George,LEITCHVILLE,3567.0,-35.90351,144.301495,"25m Pool - Outdoor, Childrens Learning Pool","2A King George Street, LEITCHVILLE 3567",21 F8
42,GANNAW8863,Quambatook Swimming Pool,River,QUAMBATOOK,3540.0,-35.850912,143.523524,"25m Pool - Outdoor, Childrens Learning Pool"," River Street, QUAMBATOOK 3540",20 A7
43,GREATE11088,Lara Swimming Pool,Bank,LARA,3212.0,-38.02462,144.397698,50m Pool - Outdoor," Bank Street , LARA 3212",422 K6
44,GLENEL11575,Heywood Swimming pool,Hunter,HEYWOOD,3304.0,-38.131326,141.628187,," Hunter Street, HEYWOOD 3304",502 C3
45,GLENEL11579,Merino Swimming pool,Mocamboro,MERINO,3310.0,-37.713295,141.546055,," Mocamboro Road, MERINO 3310",501 R2
46,HEPBUR9230,Daylesford Swimming Pool,Central Springs,DAYLESFORD,3460.0,-37.34291,144.141035,50m Pool - Outdoor," Central Springs Road, DAYLESFORD 3460",582 E10
47,HINDMA9249,Dimboola Swimming Pool,Lloyd,DIMBOOLA,3414.0,-36.456902,142.027116,"50m Pool - Outdoor, Toddlers Pool"," Lloyd Street, DIMBOOLA 3414",546 G10
48,HINDMA9252,Jeparit Swimming Pool,Sands,JEPARIT,3423.0,-36.140976,141.983916,"25m Pool - Outdoor, Toddlers Pool"," Sands Avenue, JEPARIT 3423",545 S2
49,HINDMA9261,Nhill Swimming Pool,Whitehead,NHILL,3418.0,-36.332204,141.657843,"25m Pool - Outdoor, Recreation / Play Water Space, Rehabilitation Pool"," Whitehead Avenue, NHILL 3418",546 E2
50,HINDMA9265,Rainbow Swimming Pool,Park,RAINBOW,3424.0,-35.900369,141.991099,"30m Pool - Outdoor, Toddlers Pool"," Park Street, RAINBOW 3424",545 S9
51,INDIGO10993,Beechworth Swimming Pool & Skatepark,Church,BEECHWORTH,3747.0,-36.362865,146.687243,," Church Street, BEECHWORTH 3747",659 N4
52,INDIGO11010,Yackandandah Swimming pool,Railway,YACKANDANDAH,3749.0,-36.311306,146.84036,25m Pool - Outdoor," Railway avenue, YACKANDANDAH 3749",659 S10
53,LATROB11429,Moe Olympic Swimming Pool,vale,MOE,3825.0,-38.181498,146.266409,," vale street, MOE 3825",700 F6
54,LATROB11466,Yallourn North Swimming Pool,School,YALLOURN NORTH,3825.0,-38.162956,146.363948,," School avenue, YALLOURN NORTH 3825",703 T4
55,LODDON12584,Boort Swimming Pool,Lake View,BOORT,3537.0,-36.118561,143.724512,," Lake View Street, BOORT 3537",593 N10
56,LODDON12597,Inglewood Swimming Pool,Grant,INGLEWOOD,3517.0,-36.57712,143.873386,," Grant Street, INGLEWOOD 3517",594 C4
57,LODDON12606,Mitiamo Swimming Pool,Echuca-Mitiamo,MITIAMO,3573.0,-36.210662,144.233419,"25m Pool - Outdoor, Toddlers Pool"," Echuca-Mitiamo Road, MITIAMO 3573",30 E5
58,LODDON12612,Pyramid Hills Swimming Pool,Victoria,PYRAMID HILLS,3575.0,-36.0559,144.124715,"25m Pool - Outdoor, Childrens Learning Pool, Toddlers Pool"," Victoria Street, PYRAMID HILLS 3575",592 D11
59,LODDON12620,Wedderburn Swimming Pool,Peters,WEDDERBURN,3518.0,-36.419401,143.615476,"25m Pool - Outdoor, Toddlers Pool"," Peters Street, WEDDERBURN 3518",593 R4
60,MACEDO10925,Gisborne South Swimming Centre,Lock,GISBORNE,3437.0,-37.550958,144.631,Program Pool,"137 Lock Road, GISBORNE 3437",425 D6
61,MACEDO10937,Lancefield Memorial Swimming Pool,Chauncey,LANCEFIELD,3435.0,-37.279809,144.722586,25m Pool - Outdoor," Chauncey Street, LANCEFIELD 3435",635 n3
62,MACEDO10955,Woodend Swimming Pool,Forest,WOODEND,3442.0,-37.353734,144.528802,25m Pool - Outdoor," Forest Street, WOODEND 3442",633 q5
63,MILDUR9102,Colignan Swimming Pool,Kulkyne,COLIGNAN,3494.0,-34.525492,142.369524,"25m Pool - Outdoor, Toddlers Pool"," Kulkyne Way, COLIGNAN 3494",6 g2
64,MILDUR9108,Irymple Swimming Pool,Fifteenth,IRYMPLE,3498.0,-34.234255,142.16872,"30m Pool - Outdoor, Toddlers Pool"," Fifteenth Street, IRYMPLE 3498",537 r4
65,MILDUR9116,Merbein Swimming Pool,Box,MERBEIN,3505.0,-34.166233,142.053419,"25m Pool - Outdoor, Toddlers Pool"," Box Street, MERBEIN 3505",537 m9
66,MILDUR9127,Murrayville Swimming Pool,Reed,MURRAYVILLE,3512.0,-35.264765,141.18144,"25m Pool - Outdoor, Toddlers Pool"," Reed Street, MURRAYVILLE 3512",539 n10
67,MILDUR9133,Ouyen Swimming Pool,Gregory,OUYEN,3490.0,-35.072282,142.316733,"30m Pool - Outdoor, Toddlers Pool"," Gregory Street, OUYEN 3490",540 g10
68,MILDUR9137,Red Cliffs Swimming Pool,Heytsbury,RED CLIFFS,3496.0,-34.304425,142.188741,"30m Pool - Outdoor, Toddlers Pool"," Heytsbury Avenue, RED CLIFFS 3496",538 f8
69,MILDUR9142,Underbool Swimming Pool,Malkin,UNDERBOOL,3509.0,-35.171307,141.807231,"25m Pool - Outdoor, Toddlers Pool"," Malkin Avenue, UNDERBOOL 3509",539 r10
70,MOIRAS12196,Nathalia Swimming Pool,Park,NATHALIA,3638.0,-36.053583,145.211294,"50m Pool - Outdoor, Toddlers Pool"," Park Street, NATHALIA 3638",669 T10
71,MOIRAS12205,Numurkah Swimming Pool,Harbison,NUMURKAH,3636.0,-36.096455,145.442362,," Harbison Avenue, NUMURKAH 3636",670 C6
72,MOIRAS12228,Yarrawonga Swimming Pool,Burley,YARRAWONGA,3730.0,-36.013559,145.996367,," Burley Road, YARRAWONGA 3730",668 C8
73,MONASH12040,Monash Uni Doug Ellis Swimming Pool,Wellington,CLAYTON,3168.0,-37.912047,145.138854,," Wellington Road, CLAYTON 3168",70 G12
74,MOONEE9394,Queens Park Swimming Pool,Corner The Strand & Pascoe Vale,MOONEE PONDS,3039.0,-37.761978,144.925204,"25m Pool - Outdoor, 30m Pool - Outdoor, Toddlers Pool"," Corner The Strand & Pascoe Vale Road, MOONEE PONDS 3039",28 j6
75,MOORAB9414,Ballan Outdoor Swimming Pool,Mill Park,BALLAN,3342.0,-37.598149,144.229999,"30m Pool - Outdoor, Toddlers Pool","1 Mill Park Street, BALLAN 3342",585 R9
76,MORELA13009,Coburg Olympic Swimming Pool,Murray,COBURG,3058.0,-37.735005,144.974475,"50m Pool - Outdoor, Childrens Learning Pool, Toddlers Pool"," Murray Road, COBURG 3058",17 K10
77,MOUNTA12667,Castlemaine Outdoor Swimming Pool,Lake Augusta,CASTLEMAINE,3450.0,-37.054153,144.213634,"50m Pool - Outdoor, Toddlers Pool"," Lake Augusta Drive, CASTLEMAINE 3450",628 F4
78,MOUNTA12669,Chewton Swimming Pool,Pyrnees,CHEWTON,3451.0,-37.081738,144.254175,"25m Pool - Outdoor, Toddlers Pool"," Pyrnees Highway, CHEWTON 3451",59 F3
79,MOUNTA12675,Harcourt Swimming Pool,Bridge,HARCOURT,3453.0,-36.994474,144.263022,"25m Pool - Outdoor, Childrens Learning Pool, Toddlers Pool"," Bridge Street, HARCOURT 3453",627 T1
80,MOUNTA12679,Maldon Swimming Pool,Hospital,MALDON,3463.0,-36.99453,144.064514,"25m Pool - Outdoor, Toddlers Pool"," Hospital Street, MALDON 3463",630 C8
81,MOUNTA12684,Newstead and District Swimming Pool,Panmure,NEWSTEAD,3462.0,-37.106391,144.060058,"25m Pool - Indoor, Toddlers Pool","6 Panmure Street, NEWSTEAD 3462",627 R9
82,MOYNES11315,Hawkesdale Swimming Pool,Penshurst-Warrnambool,HAWKESDALE,3287.0,-38.104612,142.321561,," Penshurst-Warrnambool Road, HAWKESDALE 3287",510 C3
83,MOYNES11326,Mortlake Swimming Pool,Jamieson,MORTLAKE,3272.0,-38.080615,142.809357,," Jamieson Avenue, MORTLAKE 3272",509 T4
84,MURRIN11000,Alexandra Swimming Pool,Perkins,ALEXANDRA,3714.0,-37.188914,145.713059,," Perkins Street, ALEXANDRA 3714",680 F3
85,MURRIN11008,Eildon Swimming Pool,High,EILDON,3713.0,-37.232993,145.907981,," High Street, EILDON 3713",681 O3
86,MURRIN11020,Marysville Swimming Pool,Falls,MARYSVILLE,3779.0,-37.51132,145.748758,," Falls Road, MARYSVILLE 3779",680 H10
87,MURRIN11030,Yea Swimming Pool,High,YEA,3717.0,-37.212488,145.42224,," High Street, YEA 3717",681 R9
88,NORTHE12630,Halls Gap Swimming Pool,Grampians,HALLS GAP,3381.0,-37.139595,142.518042,25m Pool - Outdoor," Grampians Road, HALLS GAP 3381",56 A4
89,NORTHE12635,Marnoo Swimming Pool,Donald-Stawell,MARNOO,3387.0,-36.676233,142.869874,25m Pool - Outdoor," Donald-Stawell Road, MARNOO 3387",549 S11
90,NORTHE12643,St Arnaud Swimming Pool,Grant,ST ARNAUD,3478.0,-36.613692,143.259629,"50m Pool - Outdoor, Toddlers Pool"," Grant Street, ST ARNAUD 3478",551 S9
91,PYRENE11077,Avoca Swimming Pool,Pyrnees,AVOCA,3467.0,-37.091083,143.475855,"25m Pool - Outdoor, Toddlers Pool"," Pyrnees Highway, AVOCA 3467",556 D4
92,PYRENE11081,Beaufort Swimming Pool,Leichardt,BEAUFORT,3373.0,-37.432352,143.385745,50m Pool - Outdoor,"13 Leichardt Street, BEAUFORT 3373",556 H10
93,GREATE12126,Merrigum Swimming Pool,Morrissey,MERRIGUM,3620.0,-36.372121,145.130585,," Morrissey Street, MERRIGUM 3620",32 D7
94,GREATE12133,Mooroopna War Memorial Swimming Pool,Ann,MOOROOPNA,3629.0,-36.390984,145.359199,"30m Pool - Outdoor, Toddlers Pool"," Ann Street, MOOROOPNA 3629",672 G11
95,GREATE12138,Murchison Swimming Pool,Stevenson,MURCHISON,3610.0,-36.617441,145.219765,," Stevenson Street, MURCHISON 3610",671 T5
96,GREATE12157,Tatura Swimming Complex,Hastie,TATURA,3616.0,-36.444266,145.231964,"30m Pool - Outdoor, Toddlers Pool"," Hastie Street, TATURA 3616",671 N5
97,SOUTHG12420,Mirboo North Swimming Pool,Baths,MIRBOO NORTH,3871.0,-38.39637,146.154977,"25m Pool - Outdoor, Childrens Learning Pool, Toddlers Pool"," Baths Road, MIRBOO NORTH 3871",710 H2
98,SOUTHG12425,Poowong Outdoor Swimming Pool,Poowong-Raceby,POOWONG ,3988.0,-38.341154,145.763878,"25m Pool - Outdoor, Toddlers Pool"," Poowong-Raceby Road, POOWONG  3988",709 P2
99,SOUTHG12437,Toora Swimming Pool,Cunningham,TOORA,3963.0,-38.66444,146.328509,"30m Pool - Indoor, Childrens Learning Pool, Toddlers Pool"," Cunningham Street, TOORA 3963",708 C11
100,SOUTHE11387,Balmoral Swimming Pool,Glendinning,BALMORAL,3407.0,-37.24556,141.838156,"25m Pool - Outdoor, Toddlers Pool"," Glendinning Street, BALMORAL 3407",508 H8
101,SOUTHE11394,Coleraine Swimming pool,Pileau,COLERAINE ,3315.0,-37.600901,141.68755,"50m Pool - Outdoor, Toddlers Pool"," Pileau Street, COLERAINE  3315",507 Q10
102,SOUTHE11397,Dunkeld Swimming Pool,Glenelg,DUNKELD,3294.0,-37.650028,142.342402,"25m Pool - Outdoor, Toddlers Pool"," Glenelg Hwy, DUNKELD 3294",509 N3
103,SOUTHE11400,Glenthompson Swimming Pool,Scott,GLENTHOMPSON,3293.0,-37.636165,142.548101,"25m Pool - Outdoor, Toddlers Pool"," Scott Street, GLENTHOMPSON 3293",508 J2
104,SOUTHE11407,Hamilton Olympic Swimming Pool,Byron ,HAMILTON ,3300.0,-37.742253,142.017282,"50m Pool - Outdoor, Toddlers Pool"," Byron  Street, HAMILTON  3300",506 E7
105,STRATH12899,Avenel Swimming Pool,Queen,AVENEL,3664.0,-36.897147,145.230083,25m Pool - Outdoor," Queen Street, AVENEL 3664",677 R3
106,STRATH12905,Euroa Swimming Pool,Brock,EUROA,3666.0,-36.754141,145.567254,"50m Pool - Outdoor, Childrens Learning Pool, Toddlers Pool","16A Brock Street, EUROA 3666",677 M10
107,STRATH12912,Nagambie Swimming Pool,Blayney,NAGAMBIE,3608.0,-36.792219,145.147477,"25m Pool - Outdoor, Childrens Learning Pool","1 Blayney Road, NAGAMBIE 3608",678 G5
108,STRATH12920,Violet Town Swimming Pool,Tulip,VIOLET TOWN,3669.0,-36.634741,145.717936,"25m Pool - Outdoor, Childrens Learning Pool","2 Tulip Street, VIOLET TOWN 3669",678 C9
109,SURFCO11868,Lorne Swimming Pool,Mountjoy,LORNE,3232.0,-38.539575,143.975714,,"81 Mountjoy Parade, LORNE 3232",528 G8
110,SURFCO11890,Winchelsea Swimming Pool,Barwon,WINCHELSEA,3241.0,-38.239462,143.989522,,"12 Barwon Terrace, WINCHELSEA 3241",525 N2
111,SWANHI9461,Manangatang Swimming Pool,Mallee,MANANGATANG,3546.0,-35.055603,142.880471,"25m Pool - Outdoor, Toddlers Pool"," Mallee Highway, MANANGATANG 3546",587 R11
112,SWANHI9465,Nyah Swimming Pool,Ouyen ,NYAH,3594.0,-35.18582,143.375677,"30m Pool - Outdoor, Toddlers Pool"," Ouyen  road, NYAH 3594",13 G4
113,SWANHI9480,Swan Hill Outdoor Swimming Pool,Monash,SWAN HILL,3585.0,-35.33907,143.56235,"25m Pool - Outdoor, 50m Pool - Outdoor, Recreation / Play Water Space, Toddlers Pool"," Monash Drive, SWAN HILL 3585",586 J4
114,TOWONG10989,Corryong Swimming Pool,Strezecki,CORRYONG,3707.0,-36.195168,147.898186,"50m Pool - Outdoor, Toddlers Pool"," Strezecki way, CORRYONG 3707",644 C3
115,TOWONG10996,Eskdale Swimming Pool & tennis,Omeo,ESKDALE,3701.0,-36.465685,147.252781,," Omeo Hwy, ESKDALE 3701",36 F9
116,WELLIN11024,Rosedale Swimming Pool,Hood,ROSEDALE,3847.0,-38.152861,146.786571,," Hood Street, ROSEDALE 3847",694 D11
117,WELLIN11052,Stratford Swimming Pool,McMillian,STRATFORD,3862.0,,,"25m Pool - Outdoor, Toddlers Pool"," McMillian Street, STRATFORD 3862",
118,WELLIN11053,Yarram Swimming Pool,Grant,YARRAM,3971.0,,,"25m Pool - Outdoor, Toddlers Pool"," Grant Street, YARRAM 3971",
119,WESTWI9497,Edenhope Swimming Pool,Lake,EDENHOPE,3318.0,-37.03352,141.297578,"25m Pool - Outdoor, Recreation / Play Water Space, Toddlers Pool"," Lake Street, EDENHOPE 3318",543 S5
120,WESTWI9502,Goroke Swimming Pool,Main,GOROKE,3412.0,-36.720943,141.46619,"25m Pool - Outdoor, Toddlers Pool"," Main Street, GOROKE 3412",543 M11
121,WESTWI9511,Kaniva Swimming Pool,Baker,KANIVA,3419.0,-36.381326,141.240107,"25m Pool - Outdoor, Toddlers Pool","4 Baker Street, KANIVA 3419",541 R10
122,YARRAC10998,Fitzroy Swimming Pool,Alexandra ,FITZROY,3065.0,-37.7939,144.9809,," Alexandra  Parade, FITZROY 3065",2C C5
123,YARRAR11424,Belgrave Swimming Pool & Tennis Club,Best,BELGRAVE,3160.0,-37.914008,145.353984,"30m Pool - Outdoor, Toddlers Pool","69 Best Street, BELGRAVE 3160",75 F11
124,YARRAR11448,Kilsyth Centenary Swimming Centre,Hawthory,KILSYTH,3137.0,-37.793184,145.310341,"25m Pool - Outdoor, 50m Pool - Indoor, Program Pool, Recreation / Play Water Space, Toddlers Pool"," Hawthory Road, KILSYTH 3137",51 F2
125,YARRIA12704,Beulah & District Community Swimming Pool,Deakin,BEULAH,3395.0,-35.941891,142.416455,25m Pool - Outdoor," Deakin Street, BEULAH 3395",548 H3
126,YARRIA12711,Hopetoun Swimming Pool,Evelyn,HOPETOUN,3396.0,-35.726806,142.366997,," Evelyn Street, HOPETOUN 3396",547 S6
127,YARRIA12718,Minyip Swimming Pool,Foundry,MINYIP,3392.0,-36.460713,142.591973,," Foundry Street, MINYIP 3392",549 T2
128,YARRIA12720,Murtoa Swimming Pool,Breen,MURTOA,3390.0,-36.618942,142.464442,," Breen Street, MURTOA 3390",549 N2
129,YARRIA12730,Tempy Swimming Pool,Church,TEMPY,3489.0,-35.345061,142.426236,," Church Lane, TEMPY 3489",11 H7
130,YARRIA12735,Warracknabeal Memorial Swimming Pool,Scott,WARRACKNABEAL,3393.0,-36.258547,142.396789,"50m Pool - Outdoor, Toddlers Pool"," Scott Street, WARRACKNABEAL 3393",548 D10
131,YARRIA12740,Woomelang Swimming Pool,Brook,WOOMELANG,3485.0,-35.683321,142.669019,," Brook Street, WOOMELANG 3485",547 N6
